[{"OBJECT_NAME":"SAUDISAT 1C (SO-50)","OBJECT_ID":"2002-058C","EPOCH":"2026-04-26T20:05:43.895904","MEAN_MOTION":14.82930098,"ECCENTRICITY":0.0075592,"INCLINATION":64.5515,"RA_OF_ASC_NODE":287.8458,"ARG_OF_PERICENTER":271.8075,"MEAN_ANOMALY":87.4374,"EPHEMERIS_TYPE":0,"CLASSIFICATION_TYPE":"U","NORAD_CAT_ID":27607,"ELEMENT_SET_NO":999,"REV_AT_EPOCH":25684,"BSTAR":0.00015127,"MEAN_MOTION_DOT":1.136e-5,"MEAN_MOTION_DDOT":0},{"OBJECT_NAME":"SAUDISAT 2","OBJECT_ID":"2004-025F","EPOCH":"2026-04-26T20:31:07.901184","MEAN_MOTION":14.56651148,"ECCENTRICITY":0.0025966,"INCLINATION":98.5511,"RA_OF_ASC_NODE":115.5129,"ARG_OF_PERICENTER":94.2845,"MEAN_ANOMALY":266.132,"EPHEMERIS_TYPE":0,"CLASSIFICATION_TYPE":"U","NORAD_CAT_ID":28371,"ELEMENT_SET_NO":999,"REV_AT_EPOCH":15827,"BSTAR":8.0327e-5,"MEAN_MOTION_DOT":3.1e-6,"MEAN_MOTION_DDOT":0},{"OBJECT_NAME":"SAUDISAT 3","OBJECT_ID":"2007-012B","EPOCH":"2026-04-26T13:50:12.763968","MEAN_MOTION":14.71392715,"ECCENTRICITY":0.00154396,"INCLINATION":98.1419,"RA_OF_ASC_NODE":66.9566,"ARG_OF_PERICENTER":36.0085,"MEAN_ANOMALY":324.2158,"EPHEMERIS_TYPE":0,"CLASSIFICATION_TYPE":"U","NORAD_CAT_ID":31118,"ELEMENT_SET_NO":999,"REV_AT_EPOCH":2015,"BSTAR":6.6515029e-5,"MEAN_MOTION_DOT":3.61e-6,"MEAN_MOTION_DDOT":0},{"OBJECT_NAME":"PISAT","OBJECT_ID":"2016-059B","EPOCH":"2026-04-26T17:09:55.676736","MEAN_MOTION":14.68887831,"ECCENTRICITY":0.0029371,"INCLINATION":97.8188,"RA_OF_ASC_NODE":119.3834,"ARG_OF_PERICENTER":13.0689,"MEAN_ANOMALY":347.1271,"EPHEMERIS_TYPE":0,"CLASSIFICATION_TYPE":"U","NORAD_CAT_ID":41784,"ELEMENT_SET_NO":999,"REV_AT_EPOCH":51218,"BSTAR":0.00020753,"MEAN_MOTION_DOT":1.174e-5,"MEAN_MOTION_DDOT":0},{"OBJECT_NAME":"FLYING LAPTOP","OBJECT_ID":"2017-042G","EPOCH":"2026-04-26T20:28:31.930176","MEAN_MOTION":15.00817692,"ECCENTRICITY":0.0018029,"INCLINATION":97.446,"RA_OF_ASC_NODE":274.4458,"ARG_OF_PERICENTER":300.3418,"MEAN_ANOMALY":59.6023,"EPHEMERIS_TYPE":0,"CLASSIFICATION_TYPE":"U","NORAD_CAT_ID":42831,"ELEMENT_SET_NO":999,"REV_AT_EPOCH":47875,"BSTAR":0.00037966,"MEAN_MOTION_DOT":4.782e-5,"MEAN_MOTION_DDOT":0},{"OBJECT_NAME":"SALSAT","OBJECT_ID":"2020-068K","EPOCH":"2026-04-26T11:00:12.410208","MEAN_MOTION":15.29015639,"ECCENTRICITY":0.00115423,"INCLINATION":97.8864,"RA_OF_ASC_NODE":116.4064,"ARG_OF_PERICENTER":119.6725,"MEAN_ANOMALY":240.5665,"EPHEMERIS_TYPE":0,"CLASSIFICATION_TYPE":"U","NORAD_CAT_ID":46495,"ELEMENT_SET_NO":999,"REV_AT_EPOCH":30745,"BSTAR":0.00034104261,"MEAN_MOTION_DOT":9.547e-5,"MEAN_MOTION_DDOT":0}]
